{
    "links": {
        "self": "http://www.neowsapp.com/rest/v1/neo/3674963?api_key=iIulBulltgU6a56xZRHN4H3l9WmuAYTsLGpBGhQ2"
    },
    "id": "3674963",
    "neo_reference_id": "3674963",
    "name": "(2014 OL6)",
    "designation": "2014 OL6",
    "nasa_jpl_url": "http://ssd.jpl.nasa.gov/sbdb.cgi?sstr=3674963",
    "absolute_magnitude_h": 21.0,
    "estimated_diameter": {
        "kilometers": {
            "estimated_diameter_min": 0.1677084622,
            "estimated_diameter_max": 0.3750075218
        },
        "meters": {
            "estimated_diameter_min": 167.7084621628,
            "estimated_diameter_max": 375.0075217981
        },
        "miles": {
            "estimated_diameter_min": 0.1042091748,
            "estimated_diameter_max": 0.2330187988
        },
        "feet": {
            "estimated_diameter_min": 550.2246310023,
            "estimated_diameter_max": 1230.3396778159
        }
    },
    "is_potentially_hazardous_asteroid": false,
    "close_approach_data": [
        {
            "close_approach_date": "1915-03-24",
            "close_approach_date_full": "1915-Mar-24 13:16",
            "epoch_date_close_approach": -1728557040000,
            "relative_velocity": {
                "kilometers_per_second": "8.6255038416",
                "kilometers_per_hour": "31051.8138296965",
                "miles_per_hour": "19294.3895432356"
            },
            "miss_distance": {
                "astronomical": "0.0351518049",
                "lunar": "13.6740521061",
                "kilometers": "5258635.139695563",
                "miles": "3267564.3568342494"
            },
            "orbiting_body": "Mars"
        },
        {
            "close_approach_date": "1969-10-13",
            "close_approach_date_full": "1969-Oct-13 09:14",
            "epoch_date_close_approach": -6878760000,
            "relative_velocity": {
                "kilometers_per_second": "9.4543048793",
                "kilometers_per_hour": "34035.4975654102",
                "miles_per_hour": "21148.3345844628"
            },
            "miss_distance": {
                "astronomical": "0.0835383187",
                "lunar": "32.4964059743",
                "kilometers": "12497154.540901169",
                "miles": "7765371.7466433722"
            },
            "orbiting_body": "Mars"
        },
        {
            "close_approach_date": "1998-07-09",
            "close_approach_date_full": "1998-Jul-09 00:01",
            "epoch_date_close_approach": 899942460000,
            "relative_velocity": {
                "kilometers_per_second": "4.2375799673",
                "kilometers_per_hour": "15255.2878821667",
                "miles_per_hour": "9479.042628783"
            },
            "miss_distance": {
                "astronomical": "0.2706440681",
                "lunar": "105.2805424909",
                "kilometers": "40487776.115894947",
                "miles": "25157937.4893543886"
            },
            "orbiting_body": "Earth"
        },
        {
            "close_approach_date": "2014-06-20",
            "close_approach_date_full": "2014-Jun-20 15:47",
            "epoch_date_close_approach": 1403279220000,
            "relative_velocity": {
                "kilometers_per_second": "4.0527873061",
                "kilometers_per_hour": "14590.0343019497",
                "miles_per_hour": "9065.6799250087"
            },
            "miss_distance": {
                "astronomical": "0.4082091356",
                "lunar": "158.7933537484",
                "kilometers": "61067217.200301172",
                "miles": "37945409.2162612936"
            },
            "orbiting_body": "Earth"
        }
    ],
    "orbital_data": {
        "orbit_id": "7",
        "orbit_determination_date": "2018-02-10 07:05:54",
        "first_observation_date": "2014-05-04",
        "last_observation_date": "2014-08-14",
        "data_arc_in_days": 102,
        "observations_used": 29,
        "orbit_uncertainty": "5",
        "minimum_orbit_intersection": ".266846",
        "jupiter_tisserand_invariant": "3.557",
        "epoch_osculation": "2459000.5",
        "eccentricity": ".4163423064803903",
        "semi_major_axis": "2.174826711039637",
        "inclination": "7.781462793345257",
        "ascending_node_longitude": "137.9306237156036",
        "orbital_period": "1171.481445361537",
        "perihelion_distance": "1.269354341970233",
        "perihelion_argument": "143.3168697319575",
        "aphelion_distance": "3.080299080109041",
        "perihelion_time": "2459203.510544178747",
        "mean_anomaly": "297.6142096029578",
        "mean_motion": ".3073032026460297",
        "equinox": "J2000",
        "orbit_class": {
            "orbit_class_type": "AMO",
            "orbit_class_description": "Near-Earth asteroid orbits similar to that of 1221 Amor",
            "orbit_class_range": "1.017 AU < q (perihelion) < 1.3 AU"
        }
    },
    "is_sentry_object": false
}